CCSDS_OMM_VERS = 2.0
CREATION_DATE  = 
ORIGINATOR     = 

OBJECT_NAME    = SL-16 R/B
OBJECT_ID      = 1998-043G
CENTER_NAME    = EARTH
REF_FRAME      = TEME
TIME_SYSTEM    = UTC
MEAN_ELEMENT_THEORY = SGP/SGP4

EPOCH          = 2026-01-27T11:24:32.616864
MEAN_MOTION    = 14.26039184
ECCENTRICITY   = .00106181
INCLINATION    = 98.8188
RA_OF_ASC_NODE = 340.5646
ARG_OF_PERICENTER = 129.9474
MEAN_ANOMALY   = 230.2640

EPHEMERIS_TYPE = 0
CLASSIFICATION_TYPE = U
NORAD_CAT_ID   = 25400
ELEMENT_SET_NO = 999
REV_AT_EPOCH   = 43311
BSTAR          = .82872161E-4
MEAN_MOTION_DOT = .153E-5
MEAN_MOTION_DDOT = 0

CCSDS_OMM_VERS = 2.0
CREATION_DATE  = 
ORIGINATOR     = 

OBJECT_NAME    = SL-16 R/B
OBJECT_ID      = 1998-045B
CENTER_NAME    = EARTH
REF_FRAME      = TEME
TIME_SYSTEM    = UTC
MEAN_ELEMENT_THEORY = SGP/SGP4

EPOCH          = 2026-01-27T14:32:32.655264
MEAN_MOTION    = 14.16187232
ECCENTRICITY   = .00050857
INCLINATION    = 71.0103
RA_OF_ASC_NODE = 267.9732
ARG_OF_PERICENTER = 87.2900
MEAN_ANOMALY   = 272.8805

EPHEMERIS_TYPE = 0
CLASSIFICATION_TYPE = U
NORAD_CAT_ID   = 25407
ELEMENT_SET_NO = 999
REV_AT_EPOCH   = 42128
BSTAR          = .29779193E-4
MEAN_MOTION_DOT = .11E-6
MEAN_MOTION_DDOT = 0

CCSDS_OMM_VERS = 2.0
CREATION_DATE  = 
ORIGINATOR     = 

OBJECT_NAME    = ISS (ZARYA)
OBJECT_ID      = 1998-067A
CENTER_NAME    = EARTH
REF_FRAME      = TEME
TIME_SYSTEM    = UTC
MEAN_ELEMENT_THEORY = SGP/SGP4

EPOCH          = 2026-01-27T03:26:19.576032
MEAN_MOTION    = 15.48216781
ECCENTRICITY   = .001115
INCLINATION    = 51.6321
RA_OF_ASC_NODE = 277.7306
ARG_OF_PERICENTER = 34.3982
MEAN_ANOMALY   = 325.7726

EPHEMERIS_TYPE = 0
CLASSIFICATION_TYPE = U
NORAD_CAT_ID   = 25544
ELEMENT_SET_NO = 999
REV_AT_EPOCH   = 54989
BSTAR          = .21756E-3
MEAN_MOTION_DOT = .11252E-3
MEAN_MOTION_DDOT = 0

CCSDS_OMM_VERS = 2.0
CREATION_DATE  = 
ORIGINATOR     = 

OBJECT_NAME    = CZ-4B R/B
OBJECT_ID      = 1999-025C
CENTER_NAME    = EARTH
REF_FRAME      = TEME
TIME_SYSTEM    = UTC
MEAN_ELEMENT_THEORY = SGP/SGP4

EPOCH          = 2026-01-27T15:02:00.205728
MEAN_MOTION    = 14.18256539
ECCENTRICITY   = .00381828
INCLINATION    = 98.6706
RA_OF_ASC_NODE = 72.8658
ARG_OF_PERICENTER = 102.8021
MEAN_ANOMALY   = 61.6244

EPHEMERIS_TYPE = 0
CLASSIFICATION_TYPE = U
NORAD_CAT_ID   = 25732
ELEMENT_SET_NO = 999
REV_AT_EPOCH   = 38234
BSTAR          = .75735327E-4
MEAN_MOTION_DOT = .114E-5
MEAN_MOTION_DDOT = 0

CCSDS_OMM_VERS = 2.0
CREATION_DATE  = 
ORIGINATOR     = 

OBJECT_NAME    = OKEAN-O
OBJECT_ID      = 1999-039A
CENTER_NAME    = EARTH
REF_FRAME      = TEME
TIME_SYSTEM    = UTC
MEAN_ELEMENT_THEORY = SGP/SGP4

EPOCH          = 2026-01-27T14:55:25.439808
MEAN_MOTION    = 14.80262731
ECCENTRICITY   = .0001901
INCLINATION    = 97.9530
RA_OF_ASC_NODE = 87.9125
ARG_OF_PERICENTER = 96.6028
MEAN_ANOMALY   = 263.5400

EPHEMERIS_TYPE = 0
CLASSIFICATION_TYPE = U
NORAD_CAT_ID   = 25860
ELEMENT_SET_NO = 999
REV_AT_EPOCH   = 42831
BSTAR          = .17432465E-3
MEAN_MOTION_DOT = .1275E-4
MEAN_MOTION_DDOT = 0

CCSDS_OMM_VERS = 2.0
CREATION_DATE  = 
ORIGINATOR     = 

OBJECT_NAME    = SL-16 R/B
OBJECT_ID      = 1999-039B
CENTER_NAME    = EARTH
REF_FRAME      = TEME
TIME_SYSTEM    = UTC
MEAN_ELEMENT_THEORY = SGP/SGP4

EPOCH          = 2026-01-27T13:45:09.763488
MEAN_MOTION    = 14.81669161
ECCENTRICITY   = .00155589
INCLINATION    = 98.0055
RA_OF_ASC_NODE = 86.7124
ARG_OF_PERICENTER = 35.4601
MEAN_ANOMALY   = 324.7642

EPHEMERIS_TYPE = 0
CLASSIFICATION_TYPE = U
NORAD_CAT_ID   = 25861
ELEMENT_SET_NO = 999
REV_AT_EPOCH   = 43077
BSTAR          = .13778712E-3
MEAN_MOTION_DOT = .1032E-4
MEAN_MOTION_DDOT = 0

CCSDS_OMM_VERS = 2.0
CREATION_DATE  = 
ORIGINATOR     = 

OBJECT_NAME    = DELTA 2 R/B
OBJECT_ID      = 1999-041E
CENTER_NAME    = EARTH
REF_FRAME      = TEME
TIME_SYSTEM    = UTC
MEAN_ELEMENT_THEORY = SGP/SGP4

EPOCH          = 2026-01-27T14:14:54.056544
MEAN_MOTION    = 14.11648625
ECCENTRICITY   = .05027775
INCLINATION    = 51.7632
RA_OF_ASC_NODE = 105.3841
ARG_OF_PERICENTER = 226.9976
MEAN_ANOMALY   = 128.7778

EPHEMERIS_TYPE = 0
CLASSIFICATION_TYPE = U
NORAD_CAT_ID   = 25876
ELEMENT_SET_NO = 999
REV_AT_EPOCH   = 35722
BSTAR          = .69740747E-3
MEAN_MOTION_DOT = .4107E-4
MEAN_MOTION_DDOT = 0

CCSDS_OMM_VERS = 2.0
CREATION_DATE  = 
ORIGINATOR     = 

OBJECT_NAME    = HELIOS 1B
OBJECT_ID      = 1999-064A
CENTER_NAME    = EARTH
REF_FRAME      = TEME
TIME_SYSTEM    = UTC
MEAN_ELEMENT_THEORY = SGP/SGP4

EPOCH          = 2026-01-27T11:33:37.289376
MEAN_MOTION    = 14.87516267
ECCENTRICITY   = .00014387
INCLINATION    = 98.1735
RA_OF_ASC_NODE = 288.5066
ARG_OF_PERICENTER = 130.2548
MEAN_ANOMALY   = 229.8793

EPHEMERIS_TYPE = 0
CLASSIFICATION_TYPE = U
NORAD_CAT_ID   = 25977
ELEMENT_SET_NO = 999
REV_AT_EPOCH   = 67913
BSTAR          = .38774717E-3
MEAN_MOTION_DOT = .3459E-4
MEAN_MOTION_DDOT = 0

CCSDS_OMM_VERS = 2.0
CREATION_DATE  = 
ORIGINATOR     = 

OBJECT_NAME    = TERRA
OBJECT_ID      = 1999-068A
CENTER_NAME    = EARTH
REF_FRAME      = TEME
TIME_SYSTEM    = UTC
MEAN_ELEMENT_THEORY = SGP/SGP4

EPOCH          = 2026-01-27T15:21:24.062112
MEAN_MOTION    = 14.60966638
ECCENTRICITY   = .00014636
INCLINATION    = 97.9679
RA_OF_ASC_NODE = 82.6249
ARG_OF_PERICENTER = 344.4635
MEAN_ANOMALY   = 166.9661

EPHEMERIS_TYPE = 0
CLASSIFICATION_TYPE = U
NORAD_CAT_ID   = 25994
ELEMENT_SET_NO = 999
REV_AT_EPOCH   = 38908
BSTAR          = .17187127E-3
MEAN_MOTION_DOT = .798E-5
MEAN_MOTION_DDOT = 0

CCSDS_OMM_VERS = 2.0
CREATION_DATE  = 
ORIGINATOR     = 

OBJECT_NAME    = SL-16 R/B
OBJECT_ID      = 2000-006B
CENTER_NAME    = EARTH
REF_FRAME      = TEME
TIME_SYSTEM    = UTC
MEAN_ELEMENT_THEORY = SGP/SGP4

EPOCH          = 2026-01-27T12:57:36.292032
MEAN_MOTION    = 14.15815697
ECCENTRICITY   = .00185874
INCLINATION    = 71.0013
RA_OF_ASC_NODE = 184.3574
ARG_OF_PERICENTER = 246.9248
MEAN_ANOMALY   = 112.9916

EPHEMERIS_TYPE = 0
CLASSIFICATION_TYPE = U
NORAD_CAT_ID   = 26070
ELEMENT_SET_NO = 999
REV_AT_EPOCH   = 34273
BSTAR          = .19616074E-3
MEAN_MOTION_DOT = .338E-5
MEAN_MOTION_DDOT = 0

CCSDS_OMM_VERS = 2.0
CREATION_DATE  = 
ORIGINATOR     = 

OBJECT_NAME    = TITAN 4B R/B
OBJECT_ID      = 2000-047B
CENTER_NAME    = EARTH
REF_FRAME      = TEME
TIME_SYSTEM    = UTC
MEAN_ELEMENT_THEORY = SGP/SGP4

EPOCH          = 2026-01-27T14:40:41.366496
MEAN_MOTION    = 15.09201334
ECCENTRICITY   = .00367672
INCLINATION    = 67.9889
RA_OF_ASC_NODE = 155.9872
ARG_OF_PERICENTER = 86.7855
MEAN_ANOMALY   = 273.7500

EPHEMERIS_TYPE = 0
CLASSIFICATION_TYPE = U
NORAD_CAT_ID   = 26474
ELEMENT_SET_NO = 999
REV_AT_EPOCH   = 38671
BSTAR          = .39939956E-3
MEAN_MOTION_DOT = .6335E-4
MEAN_MOTION_DDOT = 0

CCSDS_OMM_VERS = 2.0
CREATION_DATE  = 
ORIGINATOR     = 

OBJECT_NAME    = ENVISAT
OBJECT_ID      = 2002-009A
CENTER_NAME    = EARTH
REF_FRAME      = TEME
TIME_SYSTEM    = UTC
MEAN_ELEMENT_THEORY = SGP/SGP4

EPOCH          = 2026-01-27T11:00:23.567040
MEAN_MOTION    = 14.39020341
ECCENTRICITY   = .00012339
INCLINATION    = 98.3662
RA_OF_ASC_NODE = 342.0558
ARG_OF_PERICENTER = 91.6633
MEAN_ANOMALY   = 17.5512

EPHEMERIS_TYPE = 0
CLASSIFICATION_TYPE = U
NORAD_CAT_ID   = 27386
ELEMENT_SET_NO = 999
REV_AT_EPOCH   = 25324
BSTAR          = .10071773E-3
MEAN_MOTION_DOT = .268E-5
MEAN_MOTION_DDOT = 0

